IRIDIUM 26              
1 24903U 97043A   25169.57863440  .00000343  00000+0  10884-3 0  9994
2 24903  86.3955 110.0384 0002494  85.2890 274.8592 14.37147294456941
IRIDIUM 22              
1 24907U 97043E   25169.57928878  .00000300  00000+0  96610-4 0  9990
2 24907  86.3960 113.5786 0002311  84.1488 275.9972 14.35959667456974
DUMMY MASS 1            
1 24925U 97048A   25169.62850936  .00000381  00000+0  39356-4 0  9993
2 24925  86.3352 134.6630 0008421 128.3023 231.8960 14.86987832505340
DUMMY MASS 2            
1 24926U 97048B   25169.38897529  .00000387  00000+0  40311-4 0  9995
2 24926  86.3352 136.3807 0008766 139.6030 220.5848 14.86739958505086
IRIDIUM 29              
1 24944U 97051A   25169.67138442  .00000400  00000+0  12977-3 0  9995
2 24944  86.3968 143.2751 0002097  87.0702 273.0735 14.36469638453481
IRIDIUM 33              
1 24946U 97051C   25169.86404107  .00000311  00000+0  10267-3 0  9993
2 24946  86.3882 142.4545 0010071  76.5219 283.7099 14.34894080452983
IRIDIUM 28              
1 24948U 97051E   25169.85305796  .00000324  00000+0  10187-3 0  9993
2 24948  86.3971 140.7146 0002799  86.3500 273.8017 14.37387652454158
IRIDIUM 36              
1 24967U 97056C   25169.74654008  .00000353  00000+0  11108-3 0  9996
2 24967  86.3985 172.3430 0002410  83.3546 276.7925 14.37611533452446
